{"type": "FeatureCollection", "features": [ {"type": "Feature", "properties": {"norad_id": 40938, "name": "BEIDOU-3S IGSO-2S (C56)", "group": "gnss", "lat": -26.136625010782065, "lon": 105.66039296449145, "alt_km": 35561.90689367671, "timestamp": "2025-12-18T19:29:52.787460+00:00", "meta": {"OBJECT_NAME": "BEIDOU-3S IGSO-2S (C56)", "OBJECT_ID": "2015-053A", "EPOCH": "2025-12-17T17:12:22.751136", "MEAN_MOTION": 1.00269192, "ECCENTRICITY": 0.00604784, "INCLINATION": 49.5029, "RA_OF_ASC_NODE": 260.9465, "ARG_OF_PERICENTER": 188.653, "MEAN_ANOMALY": 351.012, "EPHEMERIS_TYPE": 0, "CLASSIFICATION_TYPE": "U", "NORAD_CAT_ID": 40938, "ELEMENT_SET_NO": 999, "REV_AT_EPOCH": 3753, "BSTAR": 0, "MEAN_MOTION_DOT": -1.26e-06, "MEAN_MOTION_DDOT": 0}, "tle": {"line1": "1 40938U 15053A   25351.71692999 -.00000126  00000+0  00000+0 0  9994", "line2": "2 40938  49.5029 260.9465 0060478 188.6530 351.0120  1.00269192 37533"}}, "geometry": {"type": "Point", "coordinates": [105.66039296449145, -26.136625010782065]}}, {"type": "Feature", "properties": {"norad_id": 41019, "name": "GPS BIIF-11 (PRN 10)", "group": "gnss", "lat": 11.613241115360301, "lon": 45.505108973721775, "alt_km": 20417.96967538259, "timestamp": "2025-12-18T19:29:52.787474+00:00", "meta": {"OBJECT_NAME": "GPS BIIF-11 (PRN 10)", "OBJECT_ID": "2015-062A", "EPOCH": "2025-12-18T07:03:43.994016", "MEAN_MOTION": 2.0056722, "ECCENTRICITY": 0.01109639, "INCLINATION": 56.8362, "RA_OF_ASC_NODE": 37.7874, "ARG_OF_PERICENTER": 230.0873, "MEAN_ANOMALY": 128.9937, "EPHEMERIS_TYPE": 0, "CLASSIFICATION_TYPE": "U", "NORAD_CAT_ID": 41019, "ELEMENT_SET_NO": 999, "REV_AT_EPOCH": 7420, "BSTAR": 0, "MEAN_MOTION_DOT": -6.9e-07, "MEAN_MOTION_DDOT": 0}, "tle": {"line1": "1 41019U 15062A   25352.29425919 -.00000069  00000+0  00000+0 0  9991", "line2": "2 41019  56.8362  37.7874 0110963 230.0873 128.9937  2.00567220 74202"}}, "geometry": {"type": "Point", "coordinates": [45.505108973721775, 11.613241115360301]}}, {"type": "Feature", "properties": {"norad_id": 41028, "name": "GSAT-15 (GAGAN/PRN 139)", "group": "gnss", "lat": 0.0048897586837864495, "lon": 113.5943432875685, "alt_km": 35791.406396951556, "timestamp": "2025-12-18T19:29:52.787485+00:00", "meta": {"OBJECT_NAME": "GSAT-15 (GAGAN/PRN 139)", "OBJECT_ID": "2015-065A", "EPOCH": "2025-12-18T04:57:38.619072", "MEAN_MOTION": 1.00271315, "ECCENTRICITY": 0.00025381, "INCLINATION": 0.0343, "RA_OF_ASC_NODE": 269.6856, "ARG_OF_PERICENTER": 322.2138, "MEAN_ANOMALY": 23.0771, "EPHEMERIS_TYPE": 0, "CLASSIFICATION_TYPE": "U", "NORAD_CAT_ID": 41028, "ELEMENT_SET_NO": 999, "REV_AT_EPOCH": 3698, "BSTAR": 0, "MEAN_MOTION_DOT": -2.33e-06, "MEAN_MOTION_DDOT": 0}, "tle": {"line1": "1 41028U 15065A   25352.20669698 -.00000233  00000+0  00000+0 0  9992", "line2": "2 41028   0.0343 269.6856 0002538 322.2138  23.0771  1.00271315 36984"}}, "geometry": {"type": "Point", "coordinates": [113.5943432875685, 0.0048897586837864495]}}, {"type": "Feature", "properties": {"norad_id": 41174, "name": "GSAT0209 (GALILEO 12)", "group": "gnss", "lat": -55.7207560798793, "lon": 17.842286041054294, "alt_km": 23226.31797312995, "timestamp": "2025-12-18T19:29:52.787497+00:00", "meta": {"OBJECT_NAME": "GSAT0209 (GALILEO 12)", "OBJECT_ID": "2015-079A", "EPOCH": "2025-12-17T18:49:30.009504", "MEAN_MOTION": 1.70474581, "ECCENTRICITY": 0.00024688, "INCLINATION": 55.7156, "RA_OF_ASC_NODE": 106.2426, "ARG_OF_PERICENTER": 347.1145, "MEAN_ANOMALY": 12.8381, "EPHEMERIS_TYPE": 0, "CLASSIFICATION_TYPE": "U", "NORAD_CAT_ID": 41174, "ELEMENT_SET_NO": 999, "REV_AT_EPOCH": 6168, "BSTAR": 0, "MEAN_MOTION_DOT": -9e-08, "MEAN_MOTION_DDOT": 0}, "tle": {"line1": "1 41174U 15079A   25351.78437511 -.00000009  00000+0  00000+0 0  9999", "line2": "2 41174  55.7156 106.2426 0002468 347.1145  12.8381  1.70474581 61685"}}, "geometry": {"type": "Point", "coordinates": [17.842286041054294, -55.7207560798793]}}, {"type": "Feature", "properties": {"norad_id": 41175, "name": "GSAT0208 (GALILEO 11)", "group": "gnss", "lat": 35.13248783655856, "lon": -102.44827679423013, "alt_km": 23222.448748861414, "timestamp": "2025-12-18T19:29:52.787508+00:00", "meta": {"OBJECT_NAME": "GSAT0208 (GALILEO 11)", "OBJECT_ID": "2015-079B", "EPOCH": "2025-12-17T10:01:51.548736", "MEAN_MOTION": 1.70474378, "ECCENTRICITY": 0.00019999, "INCLINATION": 55.7141, "RA_OF_ASC_NODE": 106.2497, "ARG_OF_PERICENTER": 355.3127, "MEAN_ANOMALY": 4.6444, "EPHEMERIS_TYPE": 0, "CLASSIFICATION_TYPE": "U", "NORAD_CAT_ID": 41175, "ELEMENT_SET_NO": 999, "REV_AT_EPOCH": 6209, "BSTAR": 0, "MEAN_MOTION_DOT": -9e-08, "MEAN_MOTION_DDOT": 0}, "tle": {"line1": "1 41175U 15079B   25351.41795774 -.00000009  00000+0  00000+0 0  9998", "line2": "2 41175  55.7141 106.2497 0001999 355.3127   4.6444  1.70474378 62096"}}, "geometry": {"type": "Point", "coordinates": [-102.44827679423013, 35.13248783655856]}}, {"type": "Feature", "properties": {"norad_id": 41241, "name": "IRNSS-1E", "group": "gnss", "lat": 30.514431974496485, "lon": 128.17696859781, "alt_km": 35827.15162957961, "timestamp": "2025-12-18T19:29:52.787519+00:00", "meta": {"OBJECT_NAME": "IRNSS-1E", "OBJECT_ID": "2016-003A", "EPOCH": "2025-12-17T16:32:48.379776", "MEAN_MOTION": 1.00271769, "ECCENTRICITY": 0.00216842, "INCLINATION": 32.8362, "RA_OF_ASC_NODE": 62.381, "ARG_OF_PERICENTER": 188.2818, "MEAN_ANOMALY": 195.8729, "EPHEMERIS_TYPE": 0, "CLASSIFICATION_TYPE": "U", "NORAD_CAT_ID": 41241, "ELEMENT_SET_NO": 999, "REV_AT_EPOCH": 3626, "BSTAR": 0, "MEAN_MOTION_DOT": -3.06e-06, "MEAN_MOTION_DDOT": 0}, "tle": {"line1": "1 41241U 16003A   25351.68944884 -.00000306  00000+0  00000+0 0  9997", "line2": "2 41241  32.8362  62.3810 0021684 188.2818 195.8729  1.00271769 36266"}}, "geometry": {"type": "Point", "coordinates": [128.17696859781, 30.514431974496485]}}, {"type": "Feature", "properties": {"norad_id": 41328, "name": "GPS BIIF-12 (PRN 32)", "group": "gnss", "lat": -35.950131014107875, "lon": 66.62842187354656, "alt_km": 20104.717372593863, "timestamp": "2025-12-18T19:29:52.787530+00:00", "meta": {"OBJECT_NAME": "GPS BIIF-12 (PRN 32)", "OBJECT_ID": "2016-007A", "EPOCH": "2025-12-17T21:04:45.121728", "MEAN_MOTION": 2.00560498, "ECCENTRICITY": 0.0092429, "INCLINATION": 55.409, "RA_OF_ASC_NODE": 96.6531, "ARG_OF_PERICENTER": 243.6958, "MEAN_ANOMALY": 115.3363, "EPHEMERIS_TYPE": 0, "CLASSIFICATION_TYPE": "U", "NORAD_CAT_ID": 41328, "ELEMENT_SET_NO": 999, "REV_AT_EPOCH": 7220, "BSTAR": 0, "MEAN_MOTION_DOT": -3.7e-07, "MEAN_MOTION_DDOT": 0}, "tle": {"line1": "1 41328U 16007A   25351.87830002 -.00000037  00000+0  00000+0 0  9995", "line2": "2 41328  55.4090  96.6531 0092429 243.6958 115.3363  2.00560498 72203"}}, "geometry": {"type": "Point", "coordinates": [66.62842187354656, -35.950131014107875]}}, {"type": "Feature", "properties": {"norad_id": 41330, "name": "COSMOS 2514 (751)", "group": "gnss", "lat": 29.155010627819905, "lon": 124.18906218579552, "alt_km": 19117.522952196457, "timestamp": "2025-12-18T19:29:52.787542+00:00", "meta": {"OBJECT_NAME": "COSMOS 2514 (751)", "OBJECT_ID": "2016-008A", "EPOCH": "2025-12-18T03:36:56.432160", "MEAN_MOTION": 2.13102729, "ECCENTRICITY": 0.00118677, "INCLINATION": 65.1307, "RA_OF_ASC_NODE": 319.2187, "ARG_OF_PERICENTER": 220.1526, "MEAN_ANOMALY": 139.7512, "EPHEMERIS_TYPE": 0, "CLASSIFICATION_TYPE": "U", "NORAD_CAT_ID": 41330, "ELEMENT_SET_NO": 999, "REV_AT_EPOCH": 7676, "BSTAR": 0, "MEAN_MOTION_DOT": -6.5e-07, "MEAN_MOTION_DDOT": 0}, "tle": {"line1": "1 41330U 16008A   25352.15065315 -.00000065  00000+0  00000+0 0  9999", "line2": "2 41330  65.1307 319.2187 0011867 220.1526 139.7512  2.13102729 76768"}}, "geometry": {"type": "Point", "coordinates": [124.18906218579552, 29.155010627819905]}}, {"type": "Feature", "properties": {"norad_id": 41384, "name": "IRNSS-1F", "group": "gnss", "lat": -3.6357184622126053, "lon": 52.847390256089696, "alt_km": 35847.4684432338, "timestamp": "2025-12-18T19:29:52.787554+00:00", "meta": {"OBJECT_NAME": "IRNSS-1F", "OBJECT_ID": "2016-015A", "EPOCH": "2025-12-18T01:27:48.311712", "MEAN_MOTION": 1.00275273, "ECCENTRICITY": 0.00226265, "INCLINATION": 4.8943, "RA_OF_ASC_NODE": 101.1662, "ARG_OF_PERICENTER": 181.3304, "MEAN_ANOMALY": 218.7827, "EPHEMERIS_TYPE": 0, "CLASSIFICATION_TYPE": "U", "NORAD_CAT_ID": 41384, "ELEMENT_SET_NO": 999, "REV_AT_EPOCH": 3585, "BSTAR": 0, "MEAN_MOTION_DOT": 1.8e-06, "MEAN_MOTION_DDOT": 0}, "tle": {"line1": "1 41384U 16015A   25352.06097583  .00000180  00000+0  00000+0 0  9995", "line2": "2 41384   4.8943 101.1662 0022626 181.3304 218.7827  1.00275273 35858"}}, "geometry": {"type": "Point", "coordinates": [52.847390256089696, -3.6357184622126053]}}, {"type": "Feature", "properties": {"norad_id": 41434, "name": "BEIDOU-2 IGSO-6 (C13)", "group": "gnss", "lat": 56.0126993520135, "lon": 98.84447622706445, "alt_km": 36011.5154591351, "timestamp": "2025-12-18T19:29:52.787569+00:00", "meta": {"OBJECT_NAME": "BEIDOU-2 IGSO-6 (C13)", "OBJECT_ID": "2016-021A", "EPOCH": "2025-12-11T15:29:12.615360", "MEAN_MOTION": 1.00293077, "ECCENTRICITY": 0.00608616, "INCLINATION": 59.9644, "RA_OF_ASC_NODE": 39.9082, "ARG_OF_PERICENTER": 229.9753, "MEAN_ANOMALY": 135.9177, "EPHEMERIS_TYPE": 0, "CLASSIFICATION_TYPE": "U", "NORAD_CAT_ID": 41434, "ELEMENT_SET_NO": 999, "REV_AT_EPOCH": 3560, "BSTAR": 0, "MEAN_MOTION_DOT": -1.62e-06, "MEAN_MOTION_DDOT": 0}, "tle": {"line1": "1 41434U 16021A   25345.64528490 -.00000162  00000+0  00000+0 0  9991", "line2": "2 41434  59.9644  39.9082 0060861 229.9753 135.9177  1.00293077 35600"}}, "geometry": {"type": "Point", "coordinates": [98.84447622706445, 56.0126993520135]}}]}